{"type":"FeatureCollection", "features": [
{"type":"Feature","geometry":{"type":"Polygon","coordinates":[[[77.4432,17.5843],[77.4525,17.6946],[77.5375,17.7798],[77.5862,17.9077],[77.656,17.9688],[77.5478,18.056],[77.5984,18.0931],[77.572,18.2441],[77.4092,18.3014],[77.4138,18.3924],[77.3168,18.4422],[77.064,18.1507],[76.9519,18.1881],[76.9204,18.1182],[76.9522,18.0401],[76.9055,18.0098],[76.9191,17.9161],[76.7752,17.8777],[76.7904,17.8263],[76.7143,17.7808],[76.6858,17.6822],[76.8989,17.6448],[77.0852,17.6591],[77.1501,17.6324],[77.2745,17.6269],[77.3106,17.5953],[77.4432,17.5843]]]},"properties":{"dt_code":"558","district":"Bidar","st_code":"29","year":"2011_c","st_nm":"Karnataka"}},
{"type":"Feature","geometry":{"type":"Polygon","coordinates":[[[76.6858,17.6822],[76.6557,17.718],[76.5234,17.7596],[76.4899,17.6604],[76.4198,17.6038],[76.3314,17.5963],[76.3334,17.434],[76.3831,17.3146],[76.2295,17.3653],[76.0753,17.3364],[76.1276,17.2449],[76.2428,17.1509],[76.3688,17.1669],[76.3622,17.1161],[76.4274,17.0536],[76.4406,16.9967],[76.3745,16.8587],[76.3708,16.7686],[76.4615,16.711],[76.5965,16.7657],[76.623,16.7426],[76.7348,16.7787],[76.8705,16.8958],[76.9108,16.8165],[76.9826,16.8096],[77.0177,16.8988],[77.1656,16.9388],[77.3417,16.9342],[77.4588,16.8848],[77.4968,17.0426],[77.4638,17.1099],[77.3638,17.1587],[77.3804,17.2225],[77.4585,17.2791],[77.4561,17.3312],[77.5299,17.3708],[77.5131,17.4307],[77.6888,17.5111],[77.4432,17.5843],[77.3106,17.5953],[77.2745,17.6269],[77.1501,17.6324],[77.0852,17.6591],[76.8989,17.6448],[76.6858,17.6822]]]},"properties":{"dt_code":"579","district":"Kalaburagi","st_code":"29","year":"2011_c","st_nm":"Karnataka"}},
{"type":"Feature","geometry":{"type":"Polygon","coordinates":[[[75.3418,16.956],[75.2795,16.9567],[75.2647,16.8627],[75.1819,16.8435],[75.0893,16.9515],[74.9017,16.8627],[74.9195,16.7725],[74.85,16.7729],[74.6886,16.7127],[74.6307,16.5838],[74.5704,16.5545],[74.5446,16.6356],[74.3157,16.5545],[74.3325,16.4547],[74.3167,16.3265],[74.3732,16.2617],[74.4804,16.25],[74.4798,16.1472],[74.3722,16.0782],[74.4632,16.0392],[74.3868,15.9051],[74.3458,15.7646],[74.1615,15.7513],[74.1184,15.652],[74.2366,15.6686],[74.2783,15.5229],[74.3425,15.518],[74.4219,15.4636],[74.4265,15.3986],[74.5446,15.4168],[74.6141,15.3586],[74.7392,15.4142],[74.814,15.505],[74.8305,15.6104],[74.9665,15.6543],[75.0565,15.6325],[75.1081,15.6719],[75.2028,15.6491],[75.2895,15.6907],[75.3037,15.8127],[75.3646,15.8049],[75.4516,15.8863],[75.4185,16.0525],[75.439,16.1156],[75.2759,16.1202],[75.2858,16.2012],[75.2342,16.2595],[75.1482,16.2826],[75.1296,16.331],[75.0433,16.3183],[74.9884,16.4537],[75.0076,16.5383],[75.1154,16.5061],[75.1571,16.5838],[75.2587,16.6073],[75.2656,16.6925],[75.3626,16.7143],[75.3844,16.7634],[75.395,16.8633],[75.3358,16.8695],[75.3418,16.956]]]},"properties":{"dt_code":"555","district":"Belagavi","st_code":"29","year":"2011_c","st_nm":"Karnataka"}},
{"type":"Feature","geometry":{"type":"Polygon","coordinates":[[[76.4615,16.711],[76.4049,16.643],[76.4353,16.4377],[76.3321,16.427],[76.2997,16.2832],[76.3321,16.195],[76.4797,16.2926],[76.7444,16.4094],[76.841,16.4306],[76.8698,16.4895],[76.9714,16.5038],[77.0098,16.5448],[77.156,16.4726],[77.1739,16.4325],[77.2881,16.4088],[77.2417,16.4732],[77.3691,16.4888],[77.4168,16.5175],[77.4538,16.6167],[77.426,16.7215],[77.4767,16.7885],[77.4588,16.8848],[77.3417,16.9342],[77.1656,16.9388],[77.0177,16.8988],[76.9826,16.8096],[76.9108,16.8165],[76.8705,16.8958],[76.7348,16.7787],[76.623,16.7426],[76.5965,16.7657],[76.4615,16.711]]]},"properties":{"dt_code":"580","district":"Yadgir","st_code":"29","year":"2011_c","st_nm":"Karnataka"}},
{"type":"Feature","geometry":{"type":"Polygon","coordinates":[[[75.4516,15.8863],[75.53,15.8349],[75.6425,15.8414],[75.7368,15.8134],[75.847,15.8391],[75.8771,15.9315],[75.9744,15.8619],[75.9738,15.9865],[76.079,16.0109],[76.0581,15.9074],[76.1452,15.8954],[76.2266,15.9409],[76.2818,15.9032],[76.3278,15.9338],[76.3033,16.0734],[76.2385,16.1651],[76.0677,16.2077],[76.0264,16.3008],[75.9562,16.2972],[75.8103,16.3704],[75.721,16.3909],[75.6336,16.4439],[75.4993,16.4537],[75.4936,16.5933],[75.3844,16.7634],[75.3626,16.7143],[75.2656,16.6925],[75.2587,16.6073],[75.1571,16.5838],[75.1154,16.5061],[75.0076,16.5383],[74.9884,16.4537],[75.0433,16.3183],[75.1296,16.331],[75.1482,16.2826],[75.2342,16.2595],[75.2858,16.2012],[75.2759,16.1202],[75.439,16.1156],[75.4185,16.0525],[75.4516,15.8863]]]},"properties":{"dt_code":"556","district":"Bagalkote","st_code":"29","year":"2011_c","st_nm":"Karnataka"}},
{"type":"Feature","geometry":{"type":"Polygon","coordinates":[[[76.3321,16.195],[76.2385,16.1651],[76.3033,16.0734],[76.3278,15.9338],[76.2818,15.9032],[76.4267,15.8902],[76.4516,15.8459],[76.4473,15.7343],[76.5972,15.6995],[76.6905,15.6481],[76.6888,15.5957],[76.8109,15.5476],[76.8344,15.6279],[76.9168,15.6995],[76.9429,15.762],[77.0253,15.8375],[77.0257,15.8375],[77.0253,15.8375],[77.0726,15.9104],[77.249,15.9647],[77.5134,15.9279],[77.5011,16.2217],[77.5885,16.334],[77.4892,16.385],[77.4141,16.3681],[77.2881,16.4088],[77.1739,16.4325],[77.156,16.4726],[77.0098,16.5448],[76.9714,16.5038],[76.8698,16.4895],[76.841,16.4306],[76.7444,16.4094],[76.4797,16.2926],[76.3321,16.195]]]},"properties":{"dt_code":"559","district":"Raichur","st_code":"29","year":"2011_c","st_nm":"Karnataka"}},
{"type":"Feature","geometry":{"type":"Polygon","coordinates":[[[75.847,15.8391],[75.9291,15.7909],[76.0389,15.7685],[76.0416,15.7184],[75.9671,15.679],[75.8712,15.7145],[75.8976,15.6071],[75.8239,15.4516],[75.8659,15.4077],[75.8887,15.2906],[75.9516,15.1383],[76.0939,15.1627],[76.1875,15.2349],[76.2491,15.1907],[76.3338,15.2636],[76.3639,15.3283],[76.4933,15.3449],[76.6124,15.4428],[76.7914,15.5004],[76.8109,15.5476],[76.6888,15.5957],[76.6905,15.6481],[76.5972,15.6995],[76.4473,15.7343],[76.4516,15.8459],[76.4267,15.8902],[76.2818,15.9032],[76.2266,15.9409],[76.1452,15.8954],[76.0581,15.9074],[76.079,16.0109],[75.9738,15.9865],[75.9744,15.8619],[75.8771,15.9315],[75.847,15.8391]]]},"properties":{"dt_code":"560","district":"Koppal","st_code":"29","year":"2011_c","st_nm":"Karnataka"}},
{"type":"Feature","geometry":{"type":"Polygon","coordinates":[[[75.2895,15.6907],[75.4132,15.6553],[75.4877,15.7025],[75.5545,15.6471],[75.5294,15.5378],[75.4817,15.5316],[75.4923,15.3686],[75.4126,15.2997],[75.4331,15.1988],[75.4165,15.0849],[75.533,15.0345],[75.5413,14.9789],[75.6319,14.9916],[75.7011,14.9486],[75.9089,15.0768],[75.9516,15.1383],[75.8887,15.2906],[75.8659,15.4077],[75.8239,15.4516],[75.8976,15.6071],[75.8712,15.7145],[75.9671,15.679],[76.0416,15.7184],[76.0389,15.7685],[75.9291,15.7909],[75.847,15.8391],[75.7368,15.8134],[75.6425,15.8414],[75.53,15.8349],[75.4516,15.8863],[75.3646,15.8049],[75.3037,15.8127],[75.2895,15.6907]]]},"properties":{"dt_code":"561","district":"Gadag","st_code":"29","year":"2011_c","st_nm":"Karnataka"}},
{"type":"Feature","geometry":{"type":"Polygon","coordinates":[[[76.8109,15.5476],[76.7914,15.5004],[76.6124,15.4428],[76.4933,15.3449],[76.3639,15.3283],[76.3338,15.2636],[76.2491,15.1907],[76.1875,15.2349],[76.0939,15.1627],[75.9516,15.1383],[75.9089,15.0768],[75.7011,14.9486],[75.664,14.8071],[75.759,14.7342],[75.8252,14.7791],[75.8017,14.8689],[75.8732,14.8679],[75.9658,14.9086],[76.1289,14.8692],[76.1839,14.7004],[76.3334,14.6877],[76.4238,14.5816],[76.5108,14.5605],[76.5674,14.5875],[76.6448,14.7131],[76.7133,14.8653],[76.6779,14.8871],[76.7609,14.9893],[76.8003,15.096],[76.9853,15.0153],[77.113,15.0342],[77.1653,15.1835],[77.1253,15.2271],[77.1517,15.2925],[77.0637,15.328],[77.0319,15.4357],[77.0306,15.6345],[77.0832,15.6592],[77.0257,15.8375],[77.0253,15.8375],[76.9429,15.762],[76.9168,15.6995],[76.8344,15.6279],[76.8109,15.5476]]]},"properties":{"dt_code":"565","district":"Ballari","st_code":"29","year":"2011_c","st_nm":"Karnataka"}},
{"type":"Feature","geometry":{"type":"Polygon","coordinates":[[[74.7392,15.4142],[74.8888,15.3072],[74.9103,15.2512],[74.8328,15.1354],[74.8888,15.0505],[75.082,15.0745],[75.2388,15.109],[75.4165,15.0849],[75.4331,15.1988],[75.4126,15.2997],[75.4923,15.3686],[75.4817,15.5316],[75.5294,15.5378],[75.5545,15.6471],[75.4877,15.7025],[75.4132,15.6553],[75.2895,15.6907],[75.2028,15.6491],[75.1081,15.6719],[75.0565,15.6325],[74.9665,15.6543],[74.8305,15.6104],[74.814,15.505],[74.7392,15.4142]]]},"properties":{"dt_code":"562","district":"Dharwad","st_code":"29","year":"2011_c","st_nm":"Karnataka"}},
{"type":"Feature","geometry":{"type":"Polygon","coordinates":[[[74.2783,15.5229],[74.2511,15.4916],[74.276,15.3917],[74.3233,15.3677],[74.3262,15.2834],[74.2597,15.2411],[74.317,15.1864],[74.2726,15.0976],[74.2965,15.0413],[74.2015,14.9255],[74.0959,14.8982],[74.1181,14.7859],[74.263,14.7192],[74.27,14.6272],[74.3554,14.5091],[74.3944,14.4186],[74.4414,14.2244],[74.4695,14.1883],[74.5152,13.9869],[74.5827,13.9257],[74.6664,13.9869],[74.6373,14.0946],[74.6654,14.1844],[74.7918,14.2273],[74.8901,14.2169],[74.9354,14.2433],[74.9225,14.3158],[74.9487,14.3991],[74.8788,14.4355],[74.901,14.5292],[75.0231,14.5673],[75.0509,14.6496],[75.0413,14.7739],[75.0744,14.8689],[75.082,15.0745],[74.8888,15.0505],[74.8328,15.1354],[74.9103,15.2512],[74.8888,15.3072],[74.7392,15.4142],[74.6141,15.3586],[74.5446,15.4168],[74.4265,15.3986],[74.4219,15.4636],[74.3425,15.518],[74.2783,15.5229]]]},"properties":{"dt_code":"563","district":"Uttara Kannada","st_code":"29","year":"2011_c","st_nm":"Karnataka"}},
{"type":"Feature","geometry":{"type":"Polygon","coordinates":[[[75.4165,15.0849],[75.2388,15.109],[75.082,15.0745],[75.0744,14.8689],[75.0413,14.7739],[75.0509,14.6496],[75.1879,14.6226],[75.2653,14.5797],[75.3461,14.4853],[75.3487,14.388],[75.533,14.2774],[75.6035,14.293],[75.6429,14.4313],[75.6898,14.4918],[75.7974,14.511],[75.8186,14.565],[75.7977,14.6812],[75.759,14.7342],[75.664,14.8071],[75.7011,14.9486],[75.6319,14.9916],[75.5413,14.9789],[75.533,15.0345],[75.4165,15.0849]]]},"properties":{"dt_code":"564","district":"Haveri","st_code":"29","year":"2011_c","st_nm":"Karnataka"}},
{"type":"Feature","geometry":{"type":"Polygon","coordinates":[[[76.5108,14.5605],[76.4598,14.4518],[76.2812,14.4043],[76.2077,14.4573],[76.1362,14.4271],[76.1567,14.32],[76.1349,14.2559],[76.0611,14.2224],[76.0446,13.9423],[76.0297,13.8987],[76.0985,13.8639],[76.1488,13.7325],[76.2196,13.7133],[76.2732,13.6049],[76.353,13.5795],[76.4552,13.5909],[76.621,13.7341],[76.7646,13.7819],[76.7229,13.8984],[76.85,13.9635],[76.8887,14.048],[76.9482,14.0946],[76.8946,14.1678],[77.0028,14.198],[77.0058,14.2358],[76.9396,14.2449],[76.9456,14.3132],[76.8847,14.3477],[76.9006,14.4892],[76.8063,14.5312],[76.7649,14.6021],[76.7752,14.6809],[76.8367,14.7908],[76.8675,14.9698],[76.7609,14.9893],[76.6779,14.8871],[76.7133,14.8653],[76.6448,14.7131],[76.5674,14.5875],[76.5108,14.5605]]]},"properties":{"dt_code":"566","district":"Chitradurga","st_code":"29","year":"2011_c","st_nm":"Karnataka"}},
{"type":"Feature","geometry":{"type":"Polygon","coordinates":[[[75.759,14.7342],[75.7977,14.6812],[75.8186,14.565],[75.7974,14.511],[75.6898,14.4918],[75.6429,14.4313],[75.6035,14.293],[75.533,14.2774],[75.3997,14.1177],[75.4907,14.1047],[75.6035,14.0565],[75.806,14.0982],[75.8788,13.8102],[75.9522,13.8161],[76.0297,13.8987],[76.0446,13.9423],[76.0611,14.2224],[76.1349,14.2559],[76.1567,14.32],[76.1362,14.4271],[76.2077,14.4573],[76.2812,14.4043],[76.4598,14.4518],[76.5108,14.5605],[76.4238,14.5816],[76.3334,14.6877],[76.1839,14.7004],[76.1289,14.8692],[75.9658,14.9086],[75.8732,14.8679],[75.8017,14.8689],[75.8252,14.7791],[75.759,14.7342]]]},"properties":{"dt_code":"567","district":"Davanagere","st_code":"29","year":"2011_c","st_nm":"Karnataka"}},
{"type":"Feature","geometry":{"type":"Polygon","coordinates":[[[74.6664,13.9869],[74.7117,13.9052],[74.8398,13.8974],[74.908,13.8577],[74.9281,13.7689],[74.9986,13.7383],[75.035,13.5672],[75.1409,13.4614],[75.2259,13.5281],[75.2448,13.6052],[75.3444,13.5805],[75.4145,13.6527],[75.4192,13.7061],[75.5069,13.7656],[75.5409,13.7279],[75.8788,13.8102],[75.806,14.0982],[75.6035,14.0565],[75.4907,14.1047],[75.3997,14.1177],[75.533,14.2774],[75.3487,14.388],[75.3461,14.4853],[75.2653,14.5797],[75.1879,14.6226],[75.0509,14.6496],[75.0231,14.5673],[74.901,14.5292],[74.8788,14.4355],[74.9487,14.3991],[74.9225,14.3158],[74.9354,14.2433],[74.8901,14.2169],[74.7918,14.2273],[74.6654,14.1844],[74.6373,14.0946],[74.6664,13.9869]]]},"properties":{"dt_code":"568","district":"Shivamogga","st_code":"29","year":"2011_c","st_nm":"Karnataka"}},
{"type":"Feature","geometry":{"type":"Polygon","coordinates":[[[74.5827,13.9257],[74.6102,13.8668],[74.6456,13.683],[74.6697,13.6349],[74.7167,13.3141],[74.7763,13.0717],[74.8262,13.1296],[74.8782,13.0954],[74.9943,13.1572],[75.1502,13.125],[75.2058,13.1771],[75.1667,13.2028],[75.1121,13.3564],[75.1409,13.4614],[75.035,13.5672],[74.9986,13.7383],[74.9281,13.7689],[74.908,13.8577],[74.8398,13.8974],[74.7117,13.9052],[74.6664,13.9869],[74.5827,13.9257]]]},"properties":{"dt_code":"569","district":"Udupi","st_code":"29","year":"2011_c","st_nm":"Karnataka"}},
{"type":"Feature","geometry":{"type":"Polygon","coordinates":[[[76.0297,13.8987],[75.9522,13.8161],[75.8788,13.8102],[75.5409,13.7279],[75.5069,13.7656],[75.4192,13.7061],[75.4145,13.6527],[75.3444,13.5805],[75.2448,13.6052],[75.2259,13.5281],[75.1409,13.4614],[75.1121,13.3564],[75.1667,13.2028],[75.2058,13.1771],[75.2944,13.1244],[75.3801,13.179],[75.4073,13.1117],[75.5151,13.0661],[75.5141,12.9789],[75.5588,12.9158],[75.6425,13.0313],[75.7104,13.0382],[75.7537,13.1361],[75.7289,13.1833],[75.8993,13.2662],[76.0148,13.2614],[76.0416,13.3742],[76.1395,13.4068],[76.1624,13.4699],[76.2312,13.468],[76.3639,13.5473],[76.353,13.5795],[76.2732,13.6049],[76.2196,13.7133],[76.1488,13.7325],[76.0985,13.8639],[76.0297,13.8987]]]},"properties":{"dt_code":"570","district":"Chikkamagaluru","st_code":"29","year":"2011_c","st_nm":"Karnataka"}},
{"type":"Feature","geometry":{"type":"Polygon","coordinates":[[[77.4555,13.6824],[77.3645,13.6287],[77.3863,13.5142],[77.433,13.464],[77.6577,13.398],[77.8271,13.3271],[77.8089,13.2617],[77.9353,13.2461],[77.9611,13.2841],[78.1338,13.2877],[78.1358,13.4052],[78.2102,13.4712],[78.1963,13.5685],[78.2043,13.6283],[78.1209,13.7155],[78.1146,13.8629],[78.0005,13.873],[77.97,13.9599],[77.8135,13.9147],[77.7814,13.8184],[77.6209,13.7686],[77.4555,13.6824]]]},"properties":{"dt_code":"582","district":"Chikkaballapura","st_code":"29","year":"2011_c","st_nm":"Karnataka"}},
{"type":"Feature","geometry":{"type":"Polygon","coordinates":[[[75.5588,12.9158],[75.6214,12.8553],[75.6144,12.7974],[75.6667,12.6975],[75.8328,12.6715],[75.8798,12.8338],[75.9652,12.7109],[75.9357,12.6302],[75.9625,12.5612],[76.0188,12.5706],[76.1141,12.527],[76.2193,12.6445],[76.3063,12.6103],[76.3424,12.6552],[76.3629,12.7014],[76.3324,12.8078],[76.386,12.8452],[76.4899,12.8065],[76.5776,12.8469],[76.6322,13.0043],[76.6044,13.0713],[76.4724,13.0931],[76.4731,13.1498],[76.3708,13.2005],[76.347,13.3599],[76.4198,13.4484],[76.3639,13.5473],[76.2312,13.468],[76.1624,13.4699],[76.1395,13.4068],[76.0416,13.3742],[76.0148,13.2614],[75.8993,13.2662],[75.7289,13.1833],[75.7537,13.1361],[75.7104,13.0382],[75.6425,13.0313],[75.5588,12.9158]]]},"properties":{"dt_code":"574","district":"Hassan","st_code":"29","year":"2011_c","st_nm":"Karnataka"}},
{"type":"Feature","geometry":{"type":"Polygon","coordinates":[[[77.9353,13.2461],[77.9558,13.1299],[77.9012,13.1026],[77.8648,12.9737],[77.8665,12.87],[77.93,12.8905],[77.9803,12.8351],[78.0577,12.8521],[78.1341,12.7821],[78.2308,12.7606],[78.2523,12.8605],[78.3125,12.8586],[78.3558,12.9409],[78.4673,12.975],[78.5143,13.0619],[78.5858,13.2763],[78.4442,13.3082],[78.3651,13.3619],[78.3744,13.5089],[78.4018,13.5874],[78.3261,13.5948],[78.1963,13.5685],[78.2102,13.4712],[78.1358,13.4052],[78.1338,13.2877],[77.9611,13.2841],[77.9353,13.2461]]]},"properties":{"dt_code":"581","district":"Kolar","st_code":"29","year":"2011_c","st_nm":"Karnataka"}},
{"type":"Feature","geometry":{"type":"Polygon","coordinates":[[[77.3863,13.5142],[77.3486,13.4572],[77.3387,13.329],[77.2292,13.3134],[77.1828,13.2288],[77.203,13.1846],[77.3142,13.1062],[77.3311,12.9744],[77.4287,13.0866],[77.48,13.2233],[77.5455,13.2324],[77.7255,13.1927],[77.7811,13.0339],[77.7652,12.9425],[77.831,12.8664],[77.8665,12.87],[77.8648,12.9737],[77.9012,13.1026],[77.9558,13.1299],[77.9353,13.2461],[77.8089,13.2617],[77.8271,13.3271],[77.6577,13.398],[77.433,13.464],[77.3863,13.5142]]]},"properties":{"dt_code":"583","district":"Bengaluru Rural","st_code":"29","year":"2011_c","st_nm":"Karnataka"}},
{"type":"Feature","geometry":{"type":"Polygon","coordinates":[[[74.7763,13.0717],[74.8236,12.8469],[74.8649,12.7603],[74.9824,12.7385],[75.1118,12.6809],[75.2802,12.5241],[75.4162,12.4997],[75.6147,12.5101],[75.6707,12.5511],[75.6419,12.6331],[75.6667,12.6975],[75.6144,12.7974],[75.6214,12.8553],[75.5588,12.9158],[75.5141,12.9789],[75.5151,13.0661],[75.4073,13.1117],[75.3801,13.179],[75.2944,13.1244],[75.2058,13.1771],[75.1502,13.125],[74.9943,13.1572],[74.8782,13.0954],[74.8262,13.1296],[74.7763,13.0717]]]},"properties":{"dt_code":"575","district":"Dakshina Kannada","st_code":"29","year":"2011_c","st_nm":"Karnataka"}},
{"type":"Feature","geometry":{"type":"Polygon","coordinates":[[[77.3311,12.9744],[77.3433,12.8882],[77.4194,12.8264],[77.5442,12.7759],[77.6153,12.7092],[77.6007,12.6679],[77.6785,12.6604],[77.7619,12.6975],[77.831,12.8664],[77.7652,12.9425],[77.7811,13.0339],[77.7255,13.1927],[77.5455,13.2324],[77.48,13.2233],[77.4287,13.0866],[77.3311,12.9744]]]},"properties":{"dt_code":"572","district":"Bengaluru Urban","st_code":"29","year":"2011_c","st_nm":"Karnataka"}},
{"type":"Feature","geometry":{"type":"Polygon","coordinates":[[[75.6667,12.6975],[75.6419,12.6331],[75.6707,12.5511],[75.6147,12.5101],[75.4162,12.4997],[75.3659,12.4119],[75.4215,12.3728],[75.577,12.1568],[75.6359,12.1483],[75.7941,12.0559],[75.8702,11.9521],[76.0032,11.9313],[76.1137,11.9801],[76.1892,12.0501],[76.1332,12.1916],[76.0247,12.2489],[76.0012,12.3305],[75.9086,12.3982],[76.0188,12.5706],[75.9625,12.5612],[75.9357,12.6302],[75.9652,12.7109],[75.8798,12.8338],[75.8328,12.6715],[75.6667,12.6975]]]},"properties":{"dt_code":"576","district":"Kodagu","st_code":"29","year":"2011_c","st_nm":"Karnataka"}},
{"type":"Feature","geometry":{"type":"Polygon","coordinates":[[[76.4138,11.7589],[76.4171,11.6717],[76.5118,11.7052],[76.5598,11.6226],[76.614,11.6076],[76.8238,11.6076],[76.9079,11.7953],[77.0128,11.8148],[77.1107,11.7735],[77.2937,11.809],[77.335,11.7713],[77.4274,11.7608],[77.4863,11.8874],[77.5379,11.9326],[77.6755,11.9521],[77.7089,12.0361],[77.7764,12.1122],[77.7314,12.1802],[77.6107,12.2062],[77.5051,12.1984],[77.471,12.2437],[77.4303,12.2873],[77.3261,12.3074],[77.1666,12.31],[77.1084,12.2407],[77.1223,12.1971],[77.0141,12.1633],[76.9151,12.026],[76.7937,11.9863],[76.5783,11.9883],[76.5766,11.9235],[76.4138,11.7589]]]},"properties":{"dt_code":"578","district":"Chamarajanagara","st_code":"29","year":"2011_c","st_nm":"Karnataka"}},
{"type":"Feature","geometry":{"type":"MultiPolygon","coordinates":[[[[76.353,13.5795],[76.3639,13.5473],[76.4198,13.4484],[76.347,13.3599],[76.3708,13.2005],[76.4731,13.1498],[76.4724,13.0931],[76.6044,13.0713],[76.6322,13.0043],[76.7686,13.0346],[76.8529,12.9786],[76.9244,12.8039],[77.0776,12.7493],[77.1501,12.787],[77.1312,12.8592],[77.1574,12.9581],[77.0697,13.0401],[77.0733,13.1241],[77.1623,13.1921],[77.203,13.1846],[77.1828,13.2288],[77.2292,13.3134],[77.3387,13.329],[77.3486,13.4572],[77.3863,13.5142],[77.3645,13.6287],[77.4555,13.6824],[77.4707,13.7582],[77.4327,13.8434],[77.3254,13.8333],[77.1815,13.8698],[77.1577,13.806],[77.0647,13.7438],[76.978,13.8268],[77.0415,13.9335],[76.931,14.0302],[76.9482,14.0946],[76.8887,14.048],[76.85,13.9635],[76.7229,13.8984],[76.7646,13.7819],[76.621,13.7341],[76.4552,13.5909],[76.353,13.5795]]],[[[77.0028,14.198],[77.0283,14.062],[77.1739,14.0129],[77.3221,14.0302],[77.3979,13.9065],[77.4353,13.9475],[77.3903,14.0168],[77.3936,14.1743],[77.5035,14.157],[77.479,14.2921],[77.4092,14.3366],[77.3638,14.2758],[77.1378,14.3373],[77.1167,14.2263],[77.0058,14.2358],[77.0028,14.198]]]]},"properties":{"dt_code":"571","district":"Tumakuru","st_code":"29","year":"2011_c","st_nm":"Karnataka"}},
{"type":"Feature","geometry":{"type":"Polygon","coordinates":[[[77.203,13.1846],[77.1623,13.1921],[77.0733,13.1241],[77.0697,13.0401],[77.1574,12.9581],[77.1312,12.8592],[77.1501,12.787],[77.0776,12.7493],[77.0736,12.6806],[77.1286,12.57],[77.1256,12.4825],[77.2692,12.4649],[77.3261,12.3074],[77.4303,12.2873],[77.471,12.2437],[77.5514,12.2912],[77.6156,12.3673],[77.6345,12.488],[77.5802,12.5518],[77.6007,12.6679],[77.6153,12.7092],[77.5442,12.7759],[77.4194,12.8264],[77.3433,12.8882],[77.3311,12.9744],[77.3142,13.1062],[77.203,13.1846]]]},"properties":{"dt_code":"584","district":"Ramanagara","st_code":"29","year":"2011_c","st_nm":"Karnataka"}},
{"type":"Feature","geometry":{"type":"Polygon","coordinates":[[[76.3424,12.6552],[76.3768,12.5765],[76.4519,12.4838],[76.7305,12.3426],[76.803,12.3553],[76.8543,12.4086],[76.9376,12.4005],[76.9979,12.313],[76.9952,12.2424],[77.1084,12.2407],[77.1666,12.31],[77.3261,12.3074],[77.2692,12.4649],[77.1256,12.4825],[77.1286,12.57],[77.0736,12.6806],[77.0776,12.7493],[76.9244,12.8039],[76.8529,12.9786],[76.7686,13.0346],[76.6322,13.0043],[76.5776,12.8469],[76.4899,12.8065],[76.386,12.8452],[76.3324,12.8078],[76.3629,12.7014],[76.3424,12.6552]]]},"properties":{"dt_code":"573","district":"Mandya","st_code":"29","year":"2011_c","st_nm":"Karnataka"}},
{"type":"Feature","geometry":{"type":"Polygon","coordinates":[[[76.0188,12.5706],[75.9086,12.3982],[76.0012,12.3305],[76.0247,12.2489],[76.1332,12.1916],[76.1892,12.0501],[76.1137,11.9801],[76.1127,11.8584],[76.2074,11.8617],[76.3185,11.7514],[76.4138,11.7589],[76.5766,11.9235],[76.5783,11.9883],[76.7937,11.9863],[76.9151,12.026],[77.0141,12.1633],[77.1223,12.1971],[77.1084,12.2407],[76.9952,12.2424],[76.9979,12.313],[76.9376,12.4005],[76.8543,12.4086],[76.803,12.3553],[76.7305,12.3426],[76.4519,12.4838],[76.3768,12.5765],[76.3424,12.6552],[76.3063,12.6103],[76.2193,12.6445],[76.1141,12.527],[76.0188,12.5706]]]},"properties":{"dt_code":"577","district":"Mysuru","st_code":"29","year":"2011_c","st_nm":"Karnataka"}},
{"type":"Feature","geometry":{"type":"Polygon","coordinates":[[[76.0753,17.3364],[75.9307,17.3227],[75.894,17.4011],[75.8139,17.3735],[75.6329,17.4772],[75.5744,17.3832],[75.6045,17.3051],[75.6541,17.2739],[75.6253,17.174],[75.6723,17.1161],[75.666,16.9798],[75.5294,16.9694],[75.4655,16.9882],[75.3418,16.956],[75.3358,16.8695],[75.395,16.8633],[75.3844,16.7634],[75.4936,16.5933],[75.4993,16.4537],[75.6336,16.4439],[75.721,16.3909],[75.8103,16.3704],[75.9562,16.2972],[76.0264,16.3008],[76.0677,16.2077],[76.2385,16.1651],[76.3321,16.195],[76.2997,16.2832],[76.3321,16.427],[76.4353,16.4377],[76.4049,16.643],[76.4615,16.711],[76.3708,16.7686],[76.3745,16.8587],[76.4406,16.9967],[76.4274,17.0536],[76.3622,17.1161],[76.3688,17.1669],[76.2428,17.1509],[76.1276,17.2449],[76.0753,17.3364]]]},"properties":{"dt_code":"557","district":"Vijayapura","st_code":"29","year":"2011_c","st_nm":"Karnataka"}}
]}